{
"type": "FeatureCollection",
"name": "DesertLinks",
"crs": { "type": "name", "properties": { "name": "urn:ogc:def:crs:OGC:1.3:CRS84" } },
"features": [
{ "type": "Feature", "properties": { "fid": 1, "id": "Hidden Gems", "Name": "29", "description": "Mud Volcanoes", "timestamp": null, "begin": null, "end": null, "altitudeMode": null, "tessellate": -1, "extrude": 0, "visibility": -1, "drawOrder": null, "icon": null, "URL": "https://medium.com/@chrisbigaj/southern-californias-only-active-volcanoes-b91adac784a6" }, "geometry": { "type": "Point", "coordinates": [ -115.601998581111403, 33.217854467818881, 0.0 ] } },
{ "type": "Feature", "properties": { "fid": 2, "id": "Hidden Gems", "Name": "28", "description": "Salton Sea", "timestamp": null, "begin": null, "end": null, "altitudeMode": null, "tessellate": -1, "extrude": 0, "visibility": -1, "drawOrder": null, "icon": null, "URL": "https://medium.com/@chrisbigaj/the-sea-that-shouldnt-be-3c3c32dfc890" }, "geometry": { "type": "Point", "coordinates": [ -115.843283634693293, 33.336971524634457, 0.0 ] } },
{ "type": "Feature", "properties": { "fid": 3, "id": "Ghost Town", "Name": "8", "description": "Eagle Mountain", "timestamp": null, "begin": null, "end": null, "altitudeMode": null, "tessellate": -1, "extrude": 0, "visibility": -1, "drawOrder": null, "icon": null, "URL": "https://medium.com/@chrisbigaj/inside-californias-largest-ghost-town-531b744f0483" }, "geometry": { "type": "Point", "coordinates": [ -115.480310163728305, 33.852243382348753, 0.0 ] } },
{ "type": "Feature", "properties": { "fid": 4, "id": "Ghost Town", "Name": "3", "description": "Zzyzx", "timestamp": null, "begin": null, "end": null, "altitudeMode": null, "tessellate": -1, "extrude": 0, "visibility": -1, "drawOrder": null, "icon": null, "URL": "https://medium.com/@chrisbigaj/z-is-for-zzyzx-31b66ec55fd2" }, "geometry": { "type": "Point", "coordinates": [ -116.104246002528797, 35.14249397529337, 0.0 ] } },
{ "type": "Feature", "properties": { "fid": 5, "id": "Ghost Town", "Name": "1", "description": "California City", "timestamp": null, "begin": null, "end": null, "altitudeMode": null, "tessellate": -1, "extrude": 0, "visibility": -1, "drawOrder": null, "icon": null, "URL": "https://medium.com/@chrisbigaj/the-desert-metopolis-that-never-was-fb1b8f1d3c99" }, "geometry": { "type": "Point", "coordinates": [ -117.945612429225605, 35.128929208432709, 0.0 ] } },
{ "type": "Feature", "properties": { "fid": 6, "id": "Plants & Animals", "Name": "36", "description": "King Clone", "timestamp": null, "begin": null, "end": null, "altitudeMode": null, "tessellate": -1, "extrude": 0, "visibility": -1, "drawOrder": null, "icon": null, "URL": "https://medium.com/@chrisbigaj/ode-to-the-creosote-bush-09349033de72" }, "geometry": { "type": "Point", "coordinates": [ -116.702373052531101, 34.428196915627566, 0.0 ] } },
{ "type": "Feature", "properties": { "fid": 7, "id": "Hidden Gems", "Name": "26", "description": "Bonanza Spring", "timestamp": null, "begin": null, "end": null, "altitudeMode": null, "tessellate": -1, "extrude": 0, "visibility": -1, "drawOrder": null, "icon": null, "URL": "https://medium.com/@chrisbigaj/a-forgotten-desert-oasis-73e20d1e925a" }, "geometry": { "type": "Point", "coordinates": [ -115.404806155347103, 34.682556714283109, 0.0 ] } },
{ "type": "Feature", "properties": { "fid": 8, "id": "Hidden Gems", "Name": "31", "description": "Mojave Phone Booth", "timestamp": null, "begin": null, "end": null, "altitudeMode": null, "tessellate": -1, "extrude": 0, "visibility": -1, "drawOrder": null, "icon": null, "URL": "https://medium.com/@chrisbigaj/the-mojave-phone-booth-a2c829fe3e36" }, "geometry": { "type": "Point", "coordinates": [ -115.684629681476395, 35.285823301049128, 0.0 ] } },
{ "type": "Feature", "properties": { "fid": 9, "id": "Ghost Town", "Name": "7", "description": "Darwin", "timestamp": null, "begin": null, "end": null, "altitudeMode": null, "tessellate": -1, "extrude": 0, "visibility": -1, "drawOrder": null, "icon": null, "URL": "https://medium.com/@chrisbigaj/inside-the-most-remote-town-in-california-883dba8d8b9d" }, "geometry": { "type": "Point", "coordinates": [ -117.591948404002594, 36.268045392927988, 0.0 ] } },
{ "type": "Feature", "properties": { "fid": 10, "id": "Hidden Gems", "Name": "27", "description": "Amargosa River", "timestamp": null, "begin": null, "end": null, "altitudeMode": null, "tessellate": -1, "extrude": 0, "visibility": -1, "drawOrder": null, "icon": null, "URL": "https://medium.com/@chrisbigaj/the-death-valley-river-26991455bc45" }, "geometry": { "type": "Point", "coordinates": [ -116.201962898188, 35.785069319108928, 0.0 ] } },
{ "type": "Feature", "properties": { "fid": 11, "id": "Mystery", "Name": "14", "description": "Devils Hole", "timestamp": null, "begin": null, "end": null, "altitudeMode": null, "tessellate": -1, "extrude": 0, "visibility": -1, "drawOrder": null, "icon": null, "URL": "https://medium.com/@chrisbigaj/inside-devils-hole-59c675bd2043" }, "geometry": { "type": "Point", "coordinates": [ -116.291272028795305, 36.425088977220923, 0.0 ] } },
{ "type": "Feature", "properties": { "fid": 12, "id": "Mystery", "Name": "19", "description": "Meth Lab", "timestamp": null, "begin": null, "end": null, "altitudeMode": null, "tessellate": -1, "extrude": 0, "visibility": -1, "drawOrder": null, "icon": null, "URL": "https://medium.com/@chrisbigaj/drugs-and-the-desert-4652d1460db1" }, "geometry": { "type": "Point", "coordinates": [ -116.422421652230994, 35.681871672631317, 0.0 ] } },
{ "type": "Feature", "properties": { "fid": 13, "id": "Mystery", "Name": "19", "description": "Cannabis Canyon", "timestamp": null, "begin": null, "end": null, "altitudeMode": null, "tessellate": -1, "extrude": 0, "visibility": -1, "drawOrder": null, "icon": null, "URL": "https://medium.com/@chrisbigaj/drugs-and-the-desert-4652d1460db1" }, "geometry": { "type": "Point", "coordinates": [ -117.151039476580294, 36.195112822360393, 0.0 ] } },
{ "type": "Feature", "properties": { "fid": 14, "id": "Mystery", "Name": "18", "description": "CIA Plane", "timestamp": null, "begin": null, "end": null, "altitudeMode": null, "tessellate": -1, "extrude": 0, "visibility": -1, "drawOrder": null, "icon": null, "URL": "https://medium.com/@chrisbigaj/the-cia-plane-that-crashed-in-death-valley-e0325230406a" }, "geometry": { "type": "Point", "coordinates": [ -117.323975611648905, 36.410057151996639, 0.0 ] } },
{ "type": "Feature", "properties": { "fid": 15, "id": "Mystery", "Name": "17", "description": "Area 51", "timestamp": null, "begin": null, "end": null, "altitudeMode": null, "tessellate": -1, "extrude": 0, "visibility": -1, "drawOrder": null, "icon": null, "URL": "https://medium.com/@chrisbigaj/what-goes-on-in-area-51-143d3426086f" }, "geometry": { "type": "Point", "coordinates": [ -115.814877121389401, 37.24081417077884, 0.0 ] } },
{ "type": "Feature", "properties": { "fid": 16, "id": "Mystery", "Name": "19", "description": "Gang Shooting", "timestamp": null, "begin": null, "end": null, "altitudeMode": null, "tessellate": -1, "extrude": 0, "visibility": -1, "drawOrder": null, "icon": null, "URL": "https://medium.com/@chrisbigaj/drugs-and-the-desert-4652d1460db1" }, "geometry": { "type": "Point", "coordinates": [ -117.507598029678704, 34.724651683298333, 0.0 ] } },
{ "type": "Feature", "properties": { "fid": 17, "id": "Mystery", "Name": "23", "description": "Bristlewolf", "timestamp": null, "begin": null, "end": null, "altitudeMode": null, "tessellate": -1, "extrude": 0, "visibility": -1, "drawOrder": null, "icon": null, "URL": "https://medium.com/@chrisbigaj/the-deserts-grizzliest-murder-f902e3b292c4" }, "geometry": { "type": "Point", "coordinates": [ -118.788268413873794, 41.361868467628653, 0.0 ] } },
{ "type": "Feature", "properties": { "fid": 18, "id": "Mystery", "Name": "15", "description": "Homewood Mansion", "timestamp": null, "begin": null, "end": null, "altitudeMode": null, "tessellate": -1, "extrude": 0, "visibility": -1, "drawOrder": null, "icon": null, "URL": "https://medium.com/@chrisbigaj/why-is-there-a-20-room-mansion-in-the-middle-of-the-desert-d63e8d220735" }, "geometry": { "type": "Point", "coordinates": [ -117.386792753145201, 35.893159148047793, 0.0 ] } },
{ "type": "Feature", "properties": { "fid": 19, "id": "Ghost Town", "Name": "10", "description": "Midland", "timestamp": null, "begin": null, "end": null, "altitudeMode": null, "tessellate": -1, "extrude": 0, "visibility": -1, "drawOrder": null, "icon": null, "URL": "https://medium.com/@chrisbigaj/the-california-town-that-was-intentionally-burned-d7751169b973" }, "geometry": { "type": "Point", "coordinates": [ -114.799510760414506, 33.86196927688011, 0.0 ] } },
{ "type": "Feature", "properties": { "fid": 20, "id": "Ghost Town", "Name": "9", "description": "Desert Center", "timestamp": null, "begin": null, "end": null, "altitudeMode": null, "tessellate": -1, "extrude": 0, "visibility": -1, "drawOrder": null, "icon": null, "URL": "https://medium.com/@chrisbigaj/desert-center-california-b209a8c9b7be" }, "geometry": { "type": "Point", "coordinates": [ -115.400275251010001, 33.71223728279125, 0.0 ] } },
{ "type": "Feature", "properties": { "fid": 21, "id": "Hidden Gems", "Name": "24", "description": "Dunbar", "timestamp": null, "begin": null, "end": null, "altitudeMode": null, "tessellate": -1, "extrude": 0, "visibility": -1, "drawOrder": null, "icon": null, "URL": "https://medium.com/@chrisbigaj/building-utopia-in-the-desert-decee874b8bf" }, "geometry": { "type": "Point", "coordinates": [ -115.183678797174096, 35.12555708021555, 0.0 ] } },
{ "type": "Feature", "properties": { "fid": 22, "id": "Hidden Gems", "Name": "24", "description": "Llano del Rio", "timestamp": null, "begin": null, "end": null, "altitudeMode": null, "tessellate": -1, "extrude": 0, "visibility": -1, "drawOrder": null, "icon": null, "URL": "https://medium.com/@chrisbigaj/building-utopia-in-the-desert-decee874b8bf" }, "geometry": { "type": "Point", "coordinates": [ -117.827015209222296, 34.506429650117298, 0.0 ] } },
{ "type": "Feature", "properties": { "fid": 23, "id": "Hidden Gems", "Name": "32", "description": "Mitchell Caverns", "timestamp": null, "begin": null, "end": null, "altitudeMode": null, "tessellate": -1, "extrude": 0, "visibility": -1, "drawOrder": null, "icon": null, "URL": "https://medium.com/@chrisbigaj/the-mojaves-largest-cave-system-3442d62e263a" }, "geometry": { "type": "Point", "coordinates": [ -115.513334814484594, 34.943584710467093, 0.0 ] } },
{ "type": "Feature", "properties": { "fid": 24, "id": "Mystery", "Name": "13", "description": "Sailing Stones", "timestamp": null, "begin": null, "end": null, "altitudeMode": null, "tessellate": -1, "extrude": 0, "visibility": -1, "drawOrder": null, "icon": null, "URL": "https://medium.com/@chrisbigaj/death-valleys-sailing-stones-8ede61be9dd5" }, "geometry": { "type": "Point", "coordinates": [ -117.562367156712796, 36.680846897031273, 0.0 ] } },
{ "type": "Feature", "properties": { "fid": 25, "id": "Mystery", "Name": "11", "description": "Death Valley Long Camp", "timestamp": null, "begin": null, "end": null, "altitudeMode": null, "tessellate": -1, "extrude": 0, "visibility": -1, "drawOrder": null, "icon": null, "URL": "https://medium.com/@chrisbigaj/how-death-valley-got-its-name-99b136f739c5" }, "geometry": { "type": "Point", "coordinates": [ -116.863216510785307, 36.163312219057637, 0.0 ] } },
{ "type": "Feature", "properties": { "fid": 26, "id": "Ghost Town", "Name": "2", "description": "George Air Force Base", "timestamp": null, "begin": null, "end": null, "altitudeMode": null, "tessellate": -1, "extrude": 0, "visibility": -1, "drawOrder": null, "icon": null, "URL": "https://medium.com/@chrisbigaj/the-california-air-force-base-frozen-in-time-cc32e81bb895" }, "geometry": { "type": "Point", "coordinates": [ -117.361450911398506, 34.582454821236432, 0.0 ] } },
{ "type": "Feature", "properties": { "fid": 27, "id": "Hidden Gems", "Name": "24", "description": "Slab City", "timestamp": null, "begin": null, "end": null, "altitudeMode": null, "tessellate": -1, "extrude": 0, "visibility": -1, "drawOrder": null, "icon": null, "URL": "https://medium.com/@chrisbigaj/building-utopia-in-the-desert-decee874b8bf" }, "geometry": { "type": "Point", "coordinates": [ -115.461311467027201, 33.257581634057232, 0.0 ] } },
{ "type": "Feature", "properties": { "fid": 28, "id": "Hidden Gems", "Name": "30", "description": "Giant Rock", "timestamp": null, "begin": null, "end": null, "altitudeMode": null, "tessellate": -1, "extrude": 0, "visibility": -1, "drawOrder": null, "icon": null, "URL": "https://medium.com/@chrisbigaj/giant-rock-1eb2e0e7cb7a" }, "geometry": { "type": "Point", "coordinates": [ -116.388749812614805, 34.332818885438897, 0.0 ] } },
{ "type": "Feature", "properties": { "fid": 29, "id": "Ghost Town", "Name": "5", "description": "Trona", "timestamp": null, "begin": null, "end": null, "altitudeMode": null, "tessellate": -1, "extrude": 0, "visibility": -1, "drawOrder": null, "icon": null, "URL": "https://medium.com/@chrisbigaj/trona-california-9dbe1c3ea6b1" }, "geometry": { "type": "Point", "coordinates": [ -117.373864962802898, 35.761279614006227, 0.0 ] } },
{ "type": "Feature", "properties": { "fid": 30, "id": "Mystery", "Name": "21", "description": "Death Valley Germans", "timestamp": null, "begin": null, "end": null, "altitudeMode": null, "tessellate": -1, "extrude": 0, "visibility": -1, "drawOrder": null, "icon": null, "URL": "https://medium.com/@chrisbigaj/the-death-valley-germans-431e3bec0083" }, "geometry": { "type": "Point", "coordinates": [ -116.984945632512606, 35.904993771272594, 0.0 ] } },
{ "type": "Feature", "properties": { "fid": 31, "id": "Mystery", "Name": "16", "description": "Fake Town", "timestamp": null, "begin": null, "end": null, "altitudeMode": null, "tessellate": -1, "extrude": 0, "visibility": -1, "drawOrder": null, "icon": null, "URL": "https://medium.com/@chrisbigaj/why-are-there-fake-towns-in-the-desert-0081106b586e" }, "geometry": { "type": "Point", "coordinates": [ -116.594050318130598, 35.349476759242599, 0.0 ] } },
{ "type": "Feature", "properties": { "fid": 32, "id": "Mystery", "Name": "22", "description": "M Cave", "timestamp": null, "begin": null, "end": null, "altitudeMode": null, "tessellate": -1, "extrude": 0, "visibility": -1, "drawOrder": null, "icon": null, "URL": "https://medium.com/@chrisbigaj/the-disappearance-of-kenny-veach-7884a5bcfe22" }, "geometry": { "type": "Point", "coordinates": [ -115.316631853701693, 36.526810566613719, 0.0 ] } },
{ "type": "Feature", "properties": { "fid": 33, "id": "Hidden Gems", "Name": "25", "description": "Scotty's Castle", "timestamp": null, "begin": null, "end": null, "altitudeMode": null, "tessellate": -1, "extrude": 0, "visibility": -1, "drawOrder": null, "icon": null, "URL": "https://medium.com/@chrisbigaj/the-death-valley-mansion-7983779703d0" }, "geometry": { "type": "Point", "coordinates": [ -117.341350854137801, 37.032254826691918, 0.0 ] } },
{ "type": "Feature", "properties": { "fid": 34, "id": "Plants & Animals", "Name": "35", "description": "California Saguaro", "timestamp": null, "begin": null, "end": null, "altitudeMode": null, "tessellate": -1, "extrude": 0, "visibility": -1, "drawOrder": null, "icon": null, "URL": "https://medium.com/@chrisbigaj/ode-to-the-saguaro-7399e9a0cdd7" }, "geometry": { "type": "Point", "coordinates": [ -114.773067691516701, 33.34803193791565, 0.0 ] } },
{ "type": "Feature", "properties": { "fid": 35, "id": "Mystery", "Name": "16", "description": "Arizona Fake Town", "timestamp": null, "begin": null, "end": null, "altitudeMode": null, "tessellate": -1, "extrude": 0, "visibility": -1, "drawOrder": null, "icon": null, "URL": "https://medium.com/@chrisbigaj/why-are-there-fake-towns-in-the-desert-0081106b586e" }, "geometry": { "type": "Point", "coordinates": [ -114.331719039147799, 32.437711723288423, 0.0 ] } },
{ "type": "Feature", "properties": { "fid": 36, "id": "Plants & Animals", "Name": "40", "description": "Crocodiles", "timestamp": null, "begin": null, "end": null, "altitudeMode": null, "tessellate": -1, "extrude": 0, "visibility": -1, "drawOrder": null, "icon": null, "URL": "https://medium.com/@chrisbigaj/did-the-colorado-river-ever-have-crocodiles-8e54e604a872" }, "geometry": { "type": "Point", "coordinates": [ -114.831291481414894, 31.842456582726101, 0.0 ] } },
{ "type": "Feature", "properties": { "fid": 37, "id": "Plants & Animals", "Name": "34", "description": "Palm Canyon", "timestamp": null, "begin": null, "end": null, "altitudeMode": null, "tessellate": -1, "extrude": 0, "visibility": -1, "drawOrder": null, "icon": null, "URL": "https://medium.com/@chrisbigaj/ode-to-the-california-fan-palm-7c9f6c87806a" }, "geometry": { "type": "Point", "coordinates": [ -116.538269237445505, 33.737344096645721, 0.0 ] } },
{ "type": "Feature", "properties": { "fid": 38, "id": "Mystery", "Name": "12", "description": "Heat Record", "timestamp": null, "begin": null, "end": null, "altitudeMode": null, "tessellate": -1, "extrude": 0, "visibility": -1, "drawOrder": null, "icon": null, "URL": "https://medium.com/@chrisbigaj/did-death-valley-really-reach-134-degrees-8c0d10917d8c" }, "geometry": { "type": "Point", "coordinates": [ -116.879062650315007, 36.464063424043182, 0.0 ] } },
{ "type": "Feature", "properties": { "fid": 39, "id": "Plants & Animals", "Name": "38", "description": "Oatman Burros", "timestamp": null, "begin": null, "end": null, "altitudeMode": null, "tessellate": -1, "extrude": 0, "visibility": -1, "drawOrder": null, "icon": null, "URL": "https://medium.com/@chrisbigaj/the-deserts-most-loved-invasive-species-d7aef71abc1a" }, "geometry": { "type": "Point", "coordinates": [ -114.383529782341, 35.026268773431617, 0.0 ] } },
{ "type": "Feature", "properties": { "fid": 40, "id": "Ghost Town", "Name": "4", "description": "Route 66 Towns", "timestamp": null, "begin": null, "end": null, "altitudeMode": null, "tessellate": -1, "extrude": 0, "visibility": -1, "drawOrder": null, "icon": null, "URL": "https://medium.com/@chrisbigaj/the-ghost-towns-of-route-66-c8aad11bb638" }, "geometry": { "type": "Point", "coordinates": [ -115.7454793694382, 34.558006434526241, 0.0 ] } },
{ "type": "Feature", "properties": { "fid": 41, "id": "Plants & Animals", "Name": "33", "description": "Giant Joshua Tree", "timestamp": null, "begin": null, "end": null, "altitudeMode": null, "tessellate": -1, "extrude": 0, "visibility": -1, "drawOrder": null, "icon": null, "URL": "https://medium.com/@chrisbigaj/ode-to-the-joshua-tree-b401a7d8da2f" }, "geometry": { "type": "Point", "coordinates": [ -117.978672260181, 35.084224141914959, 0.0 ] } },
{ "type": "Feature", "properties": { "fid": 42, "id": "Mystery ", "Name": "20", "description": "Manson Family Ranch", "timestamp": null, "begin": null, "end": null, "altitudeMode": null, "tessellate": -1, "extrude": 0, "visibility": -1, "drawOrder": null, "icon": null, "URL": "https://medium.com/@chrisbigaj/the-manson-family-ranch-a216dc11f5df" }, "geometry": { "type": "Point", "coordinates": [ -117.088472162410895, 35.859566798676482, 0.0 ] } },
{ "type": "Feature", "properties": { "fid": 43, "id": "Plants & Animals", "Name": "39", "description": "Sheep Canyon", "timestamp": null, "begin": null, "end": null, "altitudeMode": null, "tessellate": -1, "extrude": 0, "visibility": -1, "drawOrder": null, "icon": null, "URL": "https://medium.com/@chrisbigaj/desert-bighorn-sheep-4b1137151345" }, "geometry": { "type": "Point", "coordinates": [ -116.485256619901904, 33.36605578349581, 0.0 ] } },
{ "type": "Feature", "properties": { "fid": 45, "id": "Ghost Town", "Name": "6", "description": "Death Valley Junction", "timestamp": null, "begin": null, "end": null, "altitudeMode": null, "tessellate": null, "extrude": null, "visibility": null, "drawOrder": null, "icon": null, "URL": "https://medium.com/@chrisbigaj/the-most-haunted-town-in-the-desert-9a433407f9ad" }, "geometry": { "type": "Point", "coordinates": [ -116.414667829786907, 36.302169913514355, 0.0 ] } },
{ "type": "Feature", "properties": { "fid": 46, "id": "Plants & Animals", "Name": "37", "description": "Datura Poisoning ", "timestamp": null, "begin": null, "end": null, "altitudeMode": null, "tessellate": null, "extrude": null, "visibility": null, "drawOrder": null, "icon": null, "URL": "https://medium.com/@chrisbigaj/ode-to-the-sacred-datura-37549057f2ad" }, "geometry": { "type": "Point", "coordinates": [ -116.853859696716455, 36.459061599682038, 0.0 ] } }
]
}
